OBJECT_NAME,OBJECT_ID,EPOCH,MEAN_MOTION,ECCENTRICITY,INCLINATION,RA_OF_ASC_NODE,ARG_OF_PERICENTER,MEAN_ANOMALY,EPHEMERIS_TYPE,CLASSIFICATION_TYPE,NORAD_CAT_ID,ELEMENT_SET_NO,REV_AT_EPOCH,BSTAR,MEAN_MOTION_DOT,MEAN_MOTION_DDOT
INTELSAT 902 (IS-902),2001-039A,2026-07-04T03:23:02.141664,1.00271305,.00042888,6.1589,71.5754,29.8464,181.3792,0,U,26900,999,9086,0,-.274E-5,0
INTELSAT 904 (IS-904),2002-007A,2026-07-04T04:08:33.976608,1.00270910,.00061334,6.9595,68.9807,17.8107,226.0553,0,U,27380,999,5193,0,-.217E-5,0
DIRECTV 5 (TEMPO 1),2002-023A,2026-07-03T09:29:38.786784,1.00271698,.00035131,4.9166,75.1124,37.3501,201.2642,0,U,27426,999,8828,0,-.48E-6,0
INTELSAT 905 (IS-905),2002-027A,2026-07-03T18:25:00.792192,1.00272678,.00039433,6.7923,69.6006,36.2187,315.0202,0,U,27438,999,5152,0,.102E-5,0
GALAXY 3C (G-3C),2002-030A,2026-07-04T04:52:55.312608,1.00271750,.00018476,3.7740,77.7603,31.6931,151.1713,0,U,27445,999,4666,0,-.142E-5,0
INTELSAT 906 (IS-906),2002-041A,2026-07-04T05:38:16.287936,1.00270893,.00040489,5.8447,72.7112,12.2630,345.9757,0,U,27513,999,8719,0,.23E-6,0
GALAXY 13 (HORIZONS-1),2003-044A,2026-07-04T01:11:57.624864,1.00272934,.00017134,1.4620,83.6474,16.6797,49.7047,0,U,27954,999,4674,0,.144E-5,0
INTELSAT 10-02,2004-022A,2026-07-04T05:19:40.570176,1.00270014,.00001822,0.0397,261.8222,278.3876,180.9405,0,U,28358,999,8072,0,.1E-7,0
DIRECTV 8,2005-019A,2026-07-04T04:46:03.472320,1.00269824,.00032502,0.0198,38.7782,79.7793,116.1235,0,U,28659,999,7724,0,0,0
GALAXY 28 (G-28),2005-022A,2026-07-02T18:59:10.716000,1.00270423,.0002601,3.3367,78.7516,16.9040,82.8679,0,U,28702,999,5213,0,-.191E-5,0
GALAXY 16 (G-16),2006-023A,2026-07-04T04:51:47.920608,1.00271531,.00026734,0.0257,135.6290,324.4587,156.0812,0,U,29236,999,7314,0,-.115E-5,0
DIRECTV 9S,2006-043A,2026-07-04T04:51:10.480896,1.00271693,.0005313,2.4619,80.7060,25.5685,147.5399,0,U,29494,999,5155,0,-.102E-5,0
GALAXY 17 (G-17),2007-016B,2026-07-04T03:13:06.635712,1.00270503,.00039349,3.0119,79.6949,23.6259,142.0889,0,U,31307,999,6997,0,-.195E-5,0
INTELSAT 11 (IS-11),2007-044B,2026-07-04T03:51:51.879168,0.99048388,.00035907,3.6067,78.4705,91.2482,221.5377,0,U,32253,999,6861,0,.87E-6,0
HORIZONS-2,2007-063B,2026-07-04T04:58:57.555840,1.00273726,.00040199,2.6432,80.4263,10.4294,192.2991,0,U,32388,999,6798,0,-.243E-5,0
DIRECTV 11,2008-013A,2026-07-02T15:13:13.723104,1.00270031,.00004347,0.0453,203.0643,233.2983,333.4381,0,U,32729,999,4574,0,-.115E-5,0
GALAXY 18 (G-18),2008-024A,2026-07-04T04:44:56.078592,1.00272315,.00031215,0.0173,69.8549,40.7727,119.8191,0,U,32951,999,4602,0,.37E-6,0
GALAXY 19 (G-19),2008-045A,2026-07-04T04:52:17.872896,1.00271177,.00029096,0.0468,245.1739,235.5078,137.6037,0,U,33376,999,6507,0,-.127E-5,0
FM-5,2009-034A,2026-07-02T18:42:12.903264,1.00271535,.00009637,0.0343,275.0250,71.7322,128.4433,0,U,35493,999,4680,0,-.189E-5,0
INTELSAT 14 (IS-14),2009-064A,2026-07-04T05:07:11.767296,1.00272971,.00025613,0.0165,308.2216,154.3032,211.5094,0,U,36097,999,6077,0,-.261E-5,0
INTELSAT 15 (IS-15),2009-067A,2026-07-04T02:19:38.788608,1.00272413,.00024374,0.0186,1.2974,103.9383,296.9384,0,U,36106,999,4139,0,-.173E-5,0
DIRECTV 12,2009-075A,2026-07-02T15:12:13.817664,1.00269592,.00002931,0.0418,186.0830,277.3252,302.5946,0,U,36131,999,4670,0,-.92E-6,0
INTELSAT 16 (IS-16),2010-006A,2026-07-04T04:58:20.116128,1.00271885,.00024316,0.0103,31.4154,89.6972,159.4980,0,U,36397,999,5982,0,-.233E-5,0
XM-5,2010-053A,2026-07-02T20:29:51.095904,1.00271810,.00024153,0.0667,268.1133,288.6084,276.4302,0,U,37185,999,5764,0,-.12E-6,0
INTELSAT 17 (IS-17),2010-065B,2026-07-04T03:56:06.472320,1.00271947,.00026565,0.0359,87.1472,35.7722,284.2640,0,U,37238,999,5341,0,0,0
INTELSAT 28 (IS-28),2011-016A,2026-07-04T04:57:03.987360,1.00271563,.00038779,1.8475,82.4255,24.0080,218.3118,0,U,37392,999,5345,0,-.214E-5,0
INTELSAT 18 (IS-18),2011-056A,2026-07-04T04:28:43.687200,1.00271797,.00019852,0.0240,284.2528,185.5492,59.5740,0,U,37834,999,5398,0,.65E-6,0
INTELSAT 22 (IS-22),2012-011A,2026-07-04T03:57:51.304896,1.00271362,.00017018,0.0198,52.0862,47.4186,314.2257,0,U,38098,999,735,0,-.46E-6,0
INTELSAT 19 (IS-19),2012-030A,2026-07-04T04:24:44.069760,1.00271588,.00033321,0.0191,28.3682,84.6538,41.3584,0,U,38356,999,5062,0,-.45E-6,0
INTELSAT 20 (IS-20),2012-043A,2026-07-04T02:14:15.788256,1.00270704,.00012174,0.0072,61.0631,120.4399,202.6599,0,U,38740,999,5091,0,-.12E-6,0
INTELSAT 21 (IS-21),2012-045A,2026-07-04T05:03:27.124704,1.00271942,.00018707,0.0232,287.4228,190.4986,182.1747,0,U,38749,999,5069,0,-.273E-5,0
